[{"OBJECT_NAME":"LYNK TOWER 6","OBJECT_ID":"2024-043AB","EPOCH":"2026-03-09T21:28:38.303328","MEAN_MOTION":15.29548678,"ECCENTRICITY":0.00097492,"INCLINATION":97.5426,"RA_OF_ASC_NODE":204.1954,"ARG_OF_PERICENTER":232.0253,"MEAN_ANOMALY":128.0107,"EPHEMERIS_TYPE":0,"CLASSIFICATION_TYPE":"U","NORAD_CAT_ID":59123,"ELEMENT_SET_NO":999,"REV_AT_EPOCH":11184,"BSTAR":0.00040142146,"MEAN_MOTION_DOT":0.0001144,"MEAN_MOTION_DDOT":0},{"OBJECT_NAME":"STARLINK-34555","OBJECT_ID":"2025-139B","EPOCH":"2026-03-09T10:29:16.789632","MEAN_MOTION":15.30202868,"ECCENTRICITY":0.00011904,"INCLINATION":53.158,"RA_OF_ASC_NODE":128.3422,"ARG_OF_PERICENTER":84.8527,"MEAN_ANOMALY":275.261,"EPHEMERIS_TYPE":0,"CLASSIFICATION_TYPE":"U","NORAD_CAT_ID":64665,"ELEMENT_SET_NO":999,"REV_AT_EPOCH":4014,"BSTAR":0.00049860117,"MEAN_MOTION_DOT":0.00014438,"MEAN_MOTION_DDOT":0}]
